[
    {
        "Altitude(m)": 617719.7298842196,
        "Argument of Periapsis(deg)": 0.0,
        "Eccentricity": 0.0,
        "Inclination(deg)": 60.0,
        "Latitude(deg)": -41.1025289511072,
        "Longitude(deg)": 50.094698463219196,
        "Mean Anomaly(deg)": -130.9091,
        "RAAN(deg)": 300.0,
        "Satellite Name": "Test1 1334",
        "Satellite Number": 1334,
        "Semi-Major Axis(m)": 6980739.136638005,
        "Time(s)": 0
    },
    {
        "Altitude(m)": 617911.2655107721,
        "Argument of Periapsis(deg)": 0.00010418945913296404,
        "Eccentricity": 0.0,
        "Inclination(deg)": 60.0,
        "Latitude(deg)": -41.56572041940109,
        "Longitude(deg)": 50.59910499336225,
        "Mean Anomaly(deg)": -130.28899385453815,
        "RAAN(deg)": 299.99957995086027,
        "Satellite Name": "Test1 1334",
        "Satellite Number": 1334,
        "Semi-Major Axis(m)": 6980739.136638005,
        "Time(s)": 10
    },
    {
        "Altitude(m)": 618101.6759215372,
        "Argument of Periapsis(deg)": 0.0002083789182659281,
        "Eccentricity": 0.0,
        "Inclination(deg)": 60.0,
        "Latitude(deg)": -42.02623338424914,
        "Longitude(deg)": 51.11131886846808,
        "Mean Anomaly(deg)": -129.6688877090763,
        "RAAN(deg)": 299.99915990172053,
        "Satellite Name": "Test1 1334",
        "Satellite Number": 1334,
        "Semi-Major Axis(m)": 6980739.136638005,
        "Time(s)": 20
    },
    {
        "Altitude(m)": 618290.8880893012,
        "Argument of Periapsis(deg)": 0.00031256837739889213,
        "Eccentricity": 0.0,
        "Inclination(deg)": 60.0,
        "Latitude(deg)": -42.483987599138096,
        "Longitude(deg)": 51.631534772146985,
        "Mean Anomaly(deg)": -129.0487815636145,
        "RAAN(deg)": 299.9987398525808,
        "Satellite Name": "Test1 1334",
        "Satellite Number": 1334,
        "Semi-Major Axis(m)": 6980739.136638005,
        "Time(s)": 30
    },
    {
        "Altitude(m)": 618478.8293640615,
        "Argument of Periapsis(deg)": 0.0004167578365318562,
        "Eccentricity": 0.0,
        "Inclination(deg)": 60.0,
        "Latitude(deg)": -42.9389002925195,
        "Longitude(deg)": 52.15995118160965,
        "Mean Anomaly(deg)": -128.42867541815264,
        "RAAN(deg)": 299.99831980344106,
        "Satellite Name": "Test1 1334",
        "Satellite Number": 1334,
        "Semi-Major Axis(m)": 6980739.136638005,
        "Time(s)": 40
    },
    {
        "Altitude(m)": 618665.4275046777,
        "Argument of Periapsis(deg)": 0.0005209472956648203,
        "Eccentricity": 0.0,
        "Inclination(deg)": 60.0,
        "Latitude(deg)": -43.390886089699244,
        "Longitude(deg)": 52.696769269750746,
        "Mean Anomaly(deg)": -127.80856927269089,
        "RAAN(deg)": 299.9978997543013,
        "Satellite Name": "Test1 1334",
        "Satellite Number": 1334,
        "Semi-Major Axis(m)": 6980739.136638005,
        "Time(s)": 50
    },
    {
        "Altitude(m)": 618850.6107103254,
        "Argument of Periapsis(deg)": 0.0006251367547977843,
        "Eccentricity": 0.0,
        "Inclination(deg)": 60.0,
        "Latitude(deg)": -43.83985693408479,
        "Longitude(deg)": 53.242193300353065,
        "Mean Anomaly(deg)": -127.18846312722904,
        "RAAN(deg)": 299.99747970516154,
        "Satellite Name": "Test1 1334",
        "Satellite Number": 1334,
        "Semi-Major Axis(m)": 6980739.136638005,
        "Time(s)": 60
    },
    {
        "Altitude(m)": 619034.3076517298,
        "Argument of Periapsis(deg)": 0.0007293262139307483,
        "Eccentricity": 0.0,
        "Inclination(deg)": 60.0,
        "Latitude(deg)": -44.28572200802264,
        "Longitude(deg)": 53.796431001674044,
        "Mean Anomaly(deg)": -126.56835698176724,
        "RAAN(deg)": 299.99705965602186,
        "Satellite Name": "Test1 1334",
        "Satellite Number": 1334,
        "Semi-Major Axis(m)": 6980739.136638005,
        "Time(s)": 70
    },
    {
        "Altitude(m)": 619216.4475021694,
        "Argument of Periapsis(deg)": 0.0008335156730637124,
        "Eccentricity": 0.0,
        "Inclination(deg)": 60.0,
        "Latitude(deg)": -44.728387653496185,
        "Longitude(deg)": 54.35969240355763,
        "Mean Anomaly(deg)": -125.94825083630538,
        "RAAN(deg)": 299.99663960688207,
        "Satellite Name": "Test1 1334",
        "Satellite Number": 1334,
        "Semi-Major Axis(m)": 6980739.136638005,
        "Time(s)": 80
    },
    {
        "Altitude(m)": 619396.9599682434,
        "Argument of Periapsis(deg)": 0.0009377051321966765,
        "Eccentricity": 0.0,
        "Inclination(deg)": 60.0,
        "Latitude(deg)": -45.16775729298051,
        "Longitude(deg)": 54.93219016170837,
        "Mean Anomaly(deg)": -125.32814469084353,
        "RAAN(deg)": 299.99621955774234,
        "Satellite Name": "Test1 1334",
        "Satellite Number": 1334,
        "Semi-Major Axis(m)": 6980739.136638005,
        "Time(s)": 90
    },
    {
        "Altitude(m)": 619575.7753203836,
        "Argument of Periapsis(deg)": 0.0010418945913296407,
        "Eccentricity": 0.0,
        "Inclination(deg)": 60.0,
        "Latitude(deg)": -45.603731350799436,
        "Longitude(deg)": 55.51413985403135,
        "Mean Anomaly(deg)": -124.70803854538167,
        "RAAN(deg)": 299.9957995086026,
        "Satellite Name": "Test1 1334",
        "Satellite Number": 1334,
        "Semi-Major Axis(m)": 6980739.136638005,
        "Time(s)": 100
    },
    {
        "Altitude(m)": 619752.8244230789,
        "Argument of Periapsis(deg)": 0.0011460840504626045,
        "Eccentricity": 0.0,
        "Inclination(deg)": 60.0,
        "Latitude(deg)": -46.03620717537147,
        "Longitude(deg)": 56.10575873382346,
        "Mean Anomaly(deg)": -124.08793239991988,
        "RAAN(deg)": 299.99537945946287,
        "Satellite Name": "Test1 1334",
        "Satellite Number": 1334,
        "Semi-Major Axis(m)": 6980739.136638005,
        "Time(s)": 110
    },
    {
        "Altitude(m)": 619928.0387648268,
        "Argument of Periapsis(deg)": 0.0012502735095955685,
        "Eccentricity": 0.0,
        "Inclination(deg)": 60.0,
        "Latitude(deg)": -46.465078962772296,
        "Longitude(deg)": 56.707265963102635,
        "Mean Anomaly(deg)": -123.46782625445802,
        "RAAN(deg)": 299.99495941032313,
        "Satellite Name": "Test1 1334",
        "Satellite Number": 1334,
        "Semi-Major Axis(m)": 6980739.136638005,
        "Time(s)": 120
    },
    {
        "Altitude(m)": 620101.3504878143,
        "Argument of Periapsis(deg)": 0.0013544629687285324,
        "Eccentricity": 0.0,
        "Inclination(deg)": 60.0,
        "Latitude(deg)": -46.89023768209709,
        "Longitude(deg)": 57.31888281063969,
        "Mean Anomaly(deg)": -122.84772010899617,
        "RAAN(deg)": 299.99453936118334,
        "Satellite Name": "Test1 1334",
        "Satellite Number": 1334,
        "Semi-Major Axis(m)": 6980739.136638005,
        "Time(s)": 130
    },
    {
        "Altitude(m)": 620272.6924172504,
        "Argument of Periapsis(deg)": 0.0014586524278614966,
        "Eccentricity": 0.0,
        "Inclination(deg)": 60.0,
        "Latitude(deg)": -47.31157100315953,
        "Longitude(deg)": 57.940831299158326,
        "Mean Anomaly(deg)": -122.22761396353431,
        "RAAN(deg)": 299.9941193120436,
        "Satellite Name": "Test1 1334",
        "Satellite Number": 1334,
        "Semi-Major Axis(m)": 6980739.136638005,
        "Time(s)": 140
    },
    {
        "Altitude(m)": 620441.9980903981,
        "Argument of Periapsis(deg)": 0.0015628418869944607,
        "Eccentricity": 0.0,
        "Inclination(deg)": 60.0,
        "Latitude(deg)": -47.7289632271166,
        "Longitude(deg)": 58.57333432469669,
        "Mean Anomaly(deg)": -121.60750781807252,
        "RAAN(deg)": 299.99369926290393,
        "Satellite Name": "Test1 1334",
        "Satellite Number": 1334,
        "Semi-Major Axis(m)": 6980739.136638005,
        "Time(s)": 150
    },
    {
        "Altitude(m)": 620609.2017852969,
        "Argument of Periapsis(deg)": 0.0016670313461274247,
        "Eccentricity": 0.0,
        "Inclination(deg)": 60.0,
        "Latitude(deg)": -48.14229522067261,
        "Longitude(deg)": 59.21661573243462,
        "Mean Anomaly(deg)": -120.98740167261066,
        "RAAN(deg)": 299.99327921376414,
        "Satellite Name": "Test1 1334",
        "Satellite Number": 1334,
        "Semi-Major Axis(m)": 6980739.136638005,
        "Time(s)": 160
    },
    {
        "Altitude(m)": 620774.2385490936,
        "Argument of Periapsis(deg)": 0.0017712208052603888,
        "Eccentricity": 0.0,
        "Inclination(deg)": 60.0,
        "Latitude(deg)": -48.55144435458159,
        "Longitude(deg)": 59.870898833244716,
        "Mean Anomaly(deg)": -120.36729552714881,
        "RAAN(deg)": 299.9928591646244,
        "Satellite Name": "Test1 1334",
        "Satellite Number": 1334,
        "Semi-Major Axis(m)": 6980739.136638005,
        "Time(s)": 170
    },
    {
        "Altitude(m)": 620937.0442260739,
        "Argument of Periapsis(deg)": 0.001875410264393353,
        "Eccentricity": 0.0,
        "Inclination(deg)": 60.0,
        "Latitude(deg)": -48.95628444722858,
        "Longitude(deg)": 60.53640638380108,
        "Mean Anomaly(deg)": -119.74718938168705,
        "RAAN(deg)": 299.9924391154847,
        "Satellite Name": "Test1 1334",
        "Satellite Number": 1334,
        "Semi-Major Axis(m)": 6980739.136638005,
        "Time(s)": 180
    },
    {
        "Altitude(m)": 621097.5554852744,
        "Argument of Periapsis(deg)": 0.0019795997235263173,
        "Eccentricity": 0.0,
        "Inclination(deg)": 60.0,
        "Latitude(deg)": -49.35668571414593,
        "Longitude(deg)": 61.21336051447453,
        "Mean Anomaly(deg)": -119.12708323622516,
        "RAAN(deg)": 299.99201906634494,
        "Satellite Name": "Test1 1334",
        "Satellite Number": 1334,
        "Semi-Major Axis(m)": 6980739.136638005,
        "Time(s)": 190
    }
]